1 08820U 76039A   03078.38591472  .00000010  00000-0  10000-3 0  9030
2 08820 109.8211 150.8616 0044432 320.6083  39.1458  6.38664659371327
